NORAD_CAT_ID,OBJECT_NAME,OBJECT_TYPE,EPOCH,MEAN_MOTION,ECCENTRICITY,INCLINATION,RA_OF_ASC_NODE,ARG_OF_PERICENTER,MEAN_ANOMALY,BSTAR,MEAN_MOTION_DOT,MEAN_MOTION_DDOT,TLE_LINE0,TLE_LINE1,TLE_LINE2,SEMIMAJOR_AXIS,PERIOD,APOGEE,PERIGEE,DECAYED
49172.0,STARLINK-3091,PAYLOAD,2023-06-17 16:13:12,14.98321109,0.0003414,69.9989,265.7511,265.8218,94.2551,-6.6997e-05,-8.92e-06,0.0,0 STARLINK-3091,1 49172U 21082AU  23168.67584215 -.00000892  00000-0 -66997-4 0  9996,2 49172  69.9989 265.7511 0003414 265.8218  94.2551 14.98321109 97275,6950.22,96.108,574.458,569.713,0.0
49172.0,STARLINK-3091,PAYLOAD,2023-06-17 17:49:20,14.98321495,0.0003395,69.999,265.5825,266.006,94.0711,-4.015e-05,-5.72e-06,0.0,0 STARLINK-3091,1 49172U 21082AU  23168.74260155 -.00000572  00000-0 -40150-4 0  9996,2 49172  69.9990 265.5825 0003395 266.0060  94.0711 14.98321495 97284,6950.219,96.108,574.444,569.725,0.0
49172.0,STARLINK-3091,PAYLOAD,2023-06-18 06:38:24,14.98329625,0.0003506,69.9986,264.2358,266.8245,93.2513,1.0738e-05,3.5e-07,0.0,0 STARLINK-3091,1 49172U 21082AU  23169.27667605  .00000035  00000-0  10738-4 0  9997,2 49172  69.9986 264.2358 0003506 266.8245  93.2513 14.98329625 97366,6950.194,96.107,574.496,569.622,0.0
49172.0,STARLINK-3091,PAYLOAD,2023-06-18 13:02:56,14.983378,0.0003455,69.9988,263.5626,267.2203,92.8561,-5.8607e-06,-1.63e-06,0.0,0 STARLINK-3091,1 49172U 21082AU  23169.54371132 -.00000163  00000-0 -58607-5 0  9996,2 49172  69.9988 263.5626 0003455 267.2203  92.8561 14.98337800 97407,6950.169,96.106,574.435,569.632,0.0
49172.0,STARLINK-3091,PAYLOAD,2023-06-18 16:15:12,14.98338411,0.0003449,69.9988,263.2259,267.0361,93.0403,1.104e-05,3.9e-07,0.0,0 STARLINK-3091,1 49172U 21082AU  23169.67723006  .00000039  00000-0  11040-4 0  9990,2 49172  69.9988 263.2259 0003449 267.0361  93.0403 14.98338411 97421,6950.167,96.106,574.429,569.635,0.0
49172.0,STARLINK-3091,PAYLOAD,2023-06-19 13:04:57,14.98325994,0.0003665,69.9988,261.0378,266.5808,93.4932,0.00021521,2.476e-05,0.0,0 STARLINK-3091,1 49172U 21082AU  23170.54511192  .00002476  00000-0  21521-3 0  9990,2 49172  69.9988 261.0378 0003665 266.5808  93.4932 14.98325994 97556,6950.205,96.107,574.618,569.523,0.0
49172.0,STARLINK-3091,PAYLOAD,2023-06-19 22:41:46,14.98333514,0.0003463,69.9991,260.0286,264.2517,95.8248,2.0967e-05,1.57e-06,0.0,0 STARLINK-3091,1 49172U 21082AU  23170.94567224  .00000157  00000-0  20967-4 0  9999,2 49172  69.9991 260.0286 0003463 264.2517  95.8248 14.98333514 97615,6950.182,96.107,574.454,569.64,0.0
49172.0,STARLINK-3091,PAYLOAD,2023-06-20 16:19:14,14.98334367,0.0003379,69.9992,258.1768,264.8318,95.2456,3.6153e-06,-5e-07,0.0,0 STARLINK-3091,1 49172U 21082AU  23171.68003145 -.00000050  00000-0  36153-5 0  9996,2 49172  69.9992 258.1768 0003379 264.8318  95.2456 14.98334367 97724,6950.179,96.107,574.393,569.696,0.0
49172.0,STARLINK-3091,PAYLOAD,2023-06-21 13:08:59,14.98331862,0.0003315,69.9994,255.9883,267.8001,92.2778,-3.4002e-05,-4.99e-06,0.0,0 STARLINK-3091,1 49172U 21082AU  23172.54791287 -.00000499  00000-0 -34002-4 0  9991,2 49172  69.9994 255.9883 0003315 267.8001  92.2778 14.98331862 97856,6950.187,96.107,574.356,569.748,0.0
49172.0,STARLINK-3091,PAYLOAD,2023-06-21 14:45:07,14.98332559,0.0003304,69.9995,255.82,268.0792,91.9989,-2.5003e-05,-3.91e-06,0.0,0 STARLINK-3091,1 49172U 21082AU  23172.61467211 -.00000391  00000-0 -25003-4 0  9998,2 49172  69.9995 255.8200 0003304 268.0792  91.9989 14.98332559 97862,6950.185,96.107,574.346,569.754,0.0
49172.0,STARLINK-3091,PAYLOAD,2023-06-21 22:45:48,14.98330377,0.0003278,69.9995,254.9784,267.8613,92.2171,-3.4395e-06,-1.34e-06,0.0,0 STARLINK-3091,1 49172U 21082AU  23172.94847257 -.00000134  00000-0 -34395-5 0  9996,2 49172  69.9995 254.9784 0003278 267.8613  92.2171 14.98330377 97917,6950.192,96.107,574.335,569.778,0.0
49172.0,STARLINK-3091,PAYLOAD,2023-06-22 22:47:48,14.98331937,0.0003853,69.9986,252.4531,266.4491,93.6227,9.5188e-06,2e-07,0.0,0 STARLINK-3091,1 49172U 21082AU  23173.94986909  .00000020  00000-0  95188-5 0  9994,2 49172  69.9986 252.4531 0003853 266.4491  93.6227 14.98331937 98065,6950.187,96.107,574.73,569.374,0.0
49172.0,STARLINK-3091,PAYLOAD,2023-06-23 22:49:49,14.98328469,0.0003498,69.9988,249.927,270.7582,89.3176,4.2705e-05,4.16e-06,0.0,0 STARLINK-3091,1 49172U 21082AU  23174.95127125  .00000416  00000-0  42705-4 0  9998,2 49172  69.9988 249.9270 0003498 270.7582  89.3176 14.98328469 98210,6950.198,96.107,574.494,569.631,0.0
49172.0,STARLINK-3091,PAYLOAD,2023-06-25 08:28:39,14.98329242,0.000354,69.9987,246.3931,269.8707,90.2046,1.5242e-05,8.9e-07,0.0,0 STARLINK-3091,1 49172U 21082AU  23176.35323085  .00000089  00000-0  15242-4 0  9999,2 49172  69.9987 246.3931 0003540 269.8707  90.2046 14.98329242 98420,6950.195,96.107,574.521,569.6,0.0
49172.0,STARLINK-3091,PAYLOAD,2023-06-25 14:53:10,14.98351821,0.0003064,69.999,245.7199,262.2803,97.8008,-0.00025409,-3.125e-05,0.0,0 STARLINK-3091,1 49172U 21082AU  23176.62026189 -.00003125  00000-0 -25409-3 0  9995,2 49172  69.9990 245.7199 0003064 262.2803  97.8008 14.98351821 98461,6950.125,96.106,574.12,569.861,0.0
49172.0,STARLINK-3091,PAYLOAD,2023-06-25 21:17:43,14.98328176,0.0003404,69.9992,245.047,269.5705,90.5064,-1.1353e-05,-2.29e-06,0.0,0 STARLINK-3091,1 49172U 21082AU  23176.88731165 -.00000229  00000-0 -11353-4 0  9996,2 49172  69.9992 245.0470 0003404 269.5705  90.5064 14.98328176 98501,6950.199,96.107,574.429,569.698,0.0
49172.0,STARLINK-3091,PAYLOAD,2023-06-26 13:19:03,14.98360778,0.0003632,69.9991,243.3636,269.9857,90.0886,-0.00057537,-6.957e-05,0.0,0 STARLINK-3091,1 49172U 21082AU  23177.55490461 -.00006957  00000-0 -57537-3 0  9999,2 49172  69.9991 243.3636 0003632 269.9857  90.0886 14.98360778 98602,6950.098,96.105,574.487,569.438,0.0
49172.0,STARLINK-3091,PAYLOAD,2023-06-26 21:19:44,14.98328461,0.0003418,69.9992,242.522,270.2708,89.8059,5.0499e-07,-8.7e-07,0.0,0 STARLINK-3091,1 49172U 21082AU  23177.88871203 -.00000087  00000-0  50499-6 0  9992,2 49172  69.9992 242.5220 0003418 270.2708  89.8059 14.98328461 98651,6950.198,96.107,574.438,569.687,0.0
49172.0,STARLINK-3091,PAYLOAD,2023-06-28 03:46:17,14.98330165,0.0003529,69.999,239.324,269.4619,90.6136,7.0088e-05,7.43e-06,0.0,0 STARLINK-3091,1 49172U 21082AU  23179.15714909  .00000743  00000-0  70088-4 0  9995,2 49172  69.9990 239.3240 0003529 269.4619  90.6136 14.98330165 98840,6950.192,96.107,574.51,569.605,0.0
49172.0,STARLINK-3091,PAYLOAD,2023-06-29 03:48:18,14.983285,0.0003647,69.9985,236.7988,270.4785,89.5956,4.7582e-05,4.75e-06,0.0,0 STARLINK-3091,1 49172U 21082AU  23180.15855014  .00000475  00000-0  47582-4 0  9995,2 49172  69.9985 236.7988 0003647 270.4785  89.5956 14.98328500 98994,6950.198,96.107,574.597,569.528,0.0
49172.0,STARLINK-3091,PAYLOAD,2023-07-01 10:16:52,14.98326643,0.0003691,69.9986,231.0754,269.586,90.4876,-3.2842e-05,-4.85e-06,0.0,0 STARLINK-3091,1 49172U 21082AU  23182.42839020 -.00000485  00000-0 -32842-4 0  9992,2 49172  69.9986 231.0754 0003691 269.5860  90.4876 14.98326643 99333,6950.203,96.107,574.634,569.503,0.0
49172.0,STARLINK-3091,PAYLOAD,2023-07-02 02:18:12,14.98340686,0.0003721,69.9985,229.3922,269.5127,90.5606,7.8807e-05,8.48e-06,0.0,0 STARLINK-3091,1 49172U 21082AU  23183.09597680  .00000848  00000-0  78807-4 0  9991,2 49172  69.9985 229.3922 0003721 269.5127  90.5606 14.98340686 99435,6950.16,96.106,574.611,569.439,0.0
49172.0,STARLINK-3091,PAYLOAD,2023-07-02 19:55:41,14.98334806,0.0003701,69.9987,227.5406,269.3842,90.6892,8.1283e-06,4e-08,0.0,0 STARLINK-3091,1 49172U 21082AU  23183.83033752  .00000004  00000-0  81283-5 0  9995,2 49172  69.9987 227.5406 0003701 269.3842  90.6892 14.98334806 99541,6950.178,96.107,574.615,569.471,0.0
49172.0,STARLINK-3091,PAYLOAD,2023-07-03 11:57:02,14.98326576,0.0003656,69.9986,225.8577,267.6718,92.4022,2.7017e-05,2.29e-06,0.0,0 STARLINK-3091,1 49172U 21082AU  23184.49794226  .00000229  00000-0  27017-4 0  9991,2 49172  69.9986 225.8577 0003656 267.6718  92.4022 14.98326576 99643,6950.203,96.107,574.609,569.527,0.0
49172.0,STARLINK-3091,PAYLOAD,2023-07-04 11:59:03,14.983274,0.0003542,69.9989,223.333,266.6274,93.448,-0.00013618,-1.718e-05,0.0,0 STARLINK-3091,1 49172U 21082AU  23185.49934676 -.00001718  00000-0 -13618-3 0  9994,2 49172  69.9989 223.3330 0003542 266.6274  93.4480 14.98327400 99798,6950.201,96.107,574.528,569.604,0.0
49172.0,STARLINK-3091,PAYLOAD,2023-07-05 12:01:04,14.98323273,0.0003759,69.9989,220.8074,269.457,90.6159,6.8039e-05,7.19e-06,0.0,0 STARLINK-3091,1 49172U 21082AU  23186.50074611  .00000719  00000-0  68039-4 0  9997,2 49172  69.9989 220.8074 0003759 269.4570  90.6159 14.98323273 99948,6950.214,96.107,574.691,569.466,0.0
49172.0,STARLINK-3091,PAYLOAD,2023-07-06 13:39:13,14.98326993,0.0003783,69.9988,218.1144,268.6655,91.4071,0.00014305,1.614e-05,0.0,0 STARLINK-3091,1 49172U 21082AU  23187.56890383  .00001614  00000-0  14305-3 0  9997,2 49172  69.9988 218.1144 0003783 268.6655  91.4071 14.98326993100102,6950.202,96.107,574.696,569.438,0.0
49172.0,STARLINK-3091,PAYLOAD,2023-07-07 18:29:38,14.98330184,0.0003752,69.999,215.0847,267.2012,92.8718,2.0515e-05,1.52e-06,0.0,0 STARLINK-3091,1 49172U 21082AU  23188.77058425  .00000152  00000-0  20515-4 0  9991,2 49172  69.9990 215.0847 0003752 267.2012  92.8718 14.98330184100288,6950.192,96.107,574.665,569.45,0.0
49172.0,STARLINK-3091,PAYLOAD,2023-07-08 18:31:39,14.98330841,0.0003708,69.9992,212.56,266.9961,93.0774,-9.425e-06,-2.06e-06,0.0,0 STARLINK-3091,1 49172U 21082AU  23189.77198395 -.00000206  00000-0 -94250-5 0  9993,2 49172  69.9992 212.5600 0003708 266.9961  93.0774 14.98330841100431,6950.19,96.107,574.632,569.478,0.0
49172.0,STARLINK-3091,PAYLOAD,2023-07-10 02:34:20,14.98328333,0.0003759,69.9991,209.1935,267.0954,92.9775,1.4529e-05,8e-07,0.0,0 STARLINK-3091,1 49172U 21082AU  23191.10718398  .00000080  00000-0  14529-4 0  9992,2 49172  69.9991 209.1935 0003759 267.0954  92.9775 14.98328333100637,6950.198,96.107,574.676,569.45,0.0
